{"type": "FeatureCollection", "features": [ {"type": "Feature", "properties": {"norad_id": 66588, "name": "STARLINK-36076", "group": "last-30-days", "lat": 20.560625247760616, "lon": -142.00489267390458, "alt_km": 429.08185218843755, "timestamp": "2025-12-12T11:38:30.170003+00:00", "meta": {"OBJECT_NAME": "STARLINK-36076", "OBJECT_ID": "2025-270A", "EPOCH": "2025-12-12T04:00:01.998720", "MEAN_MOTION": 15.46332671, "ECCENTRICITY": 0.0001559, "INCLINATION": 42.9995, "RA_OF_ASC_NODE": 196.1075, "ARG_OF_PERICENTER": 270.8673, "MEAN_ANOMALY": 146.541, "EPHEMERIS_TYPE": 0, "CLASSIFICATION_TYPE": "U", "NORAD_CAT_ID": 66588, "ELEMENT_SET_NO": 999, "REV_AT_EPOCH": 430, "BSTAR": -0.045671, "MEAN_MOTION_DOT": -0.02053072, "MEAN_MOTION_DDOT": 0}, "tle": {"line1": "1 66588U 25270A   25346.16668980 -.02053072  00000+0 -45671-1 0  9997", "line2": "2 66588  42.9995 196.1075 0001559 270.8673 146.5410 15.46332671  4301"}}, "geometry": {"type": "Point", "coordinates": [-142.00489267390458, 20.560625247760616]}}, {"type": "Feature", "properties": {"norad_id": 66589, "name": "STARLINK-35447", "group": "last-30-days", "lat": 30.31735389389606, "lon": -126.91440069227593, "alt_km": 411.0591191094172, "timestamp": "2025-12-12T11:38:30.170013+00:00", "meta": {"OBJECT_NAME": "STARLINK-35447", "OBJECT_ID": "2025-270B", "EPOCH": "2025-12-12T04:00:01.998720", "MEAN_MOTION": 15.50550552, "ECCENTRICITY": 0.0002066, "INCLINATION": 42.9996, "RA_OF_ASC_NODE": 196.0798, "ARG_OF_PERICENTER": 279.1983, "MEAN_ANOMALY": 149.264, "EPHEMERIS_TYPE": 0, "CLASSIFICATION_TYPE": "U", "NORAD_CAT_ID": 66589, "ELEMENT_SET_NO": 999, "REV_AT_EPOCH": 441, "BSTAR": 0.00059305, "MEAN_MOTION_DOT": 0.00034569, "MEAN_MOTION_DDOT": 0}, "tle": {"line1": "1 66589U 25270B   25346.16668980  .00034569  00000+0  59305-3 0  9995", "line2": "2 66589  42.9996 196.0798 0002066 279.1983 149.2640 15.50550552  4416"}}, "geometry": {"type": "Point", "coordinates": [-126.91440069227593, 30.31735389389606]}}, {"type": "Feature", "properties": {"norad_id": 66590, "name": "STARLINK-35429", "group": "last-30-days", "lat": 29.22200132942513, "lon": -128.8857934168918, "alt_km": 411.5741545567953, "timestamp": "2025-12-12T11:38:30.170023+00:00", "meta": {"OBJECT_NAME": "STARLINK-35429", "OBJECT_ID": "2025-270C", "EPOCH": "2025-12-12T04:00:01.998720", "MEAN_MOTION": 15.50544278, "ECCENTRICITY": 0.0002231, "INCLINATION": 42.9996, "RA_OF_ASC_NODE": 196.0852, "ARG_OF_PERICENTER": 257.0026, "MEAN_ANOMALY": 169.4178, "EPHEMERIS_TYPE": 0, "CLASSIFICATION_TYPE": "U", "NORAD_CAT_ID": 66590, "ELEMENT_SET_NO": 999, "REV_AT_EPOCH": 441, "BSTAR": 0.0015574, "MEAN_MOTION_DOT": 0.00091995, "MEAN_MOTION_DDOT": 0}, "tle": {"line1": "1 66590U 25270C   25346.16668980  .00091995  00000+0  15574-2 0  9992", "line2": "2 66590  42.9996 196.0852 0002231 257.0026 169.4178 15.50544278  4414"}}, "geometry": {"type": "Point", "coordinates": [-128.8857934168918, 29.22200132942513]}}, {"type": "Feature", "properties": {"norad_id": 66591, "name": "STARLINK-36058", "group": "last-30-days", "lat": 31.326345337370338, "lon": -125.00730300836655, "alt_km": 410.9854343621446, "timestamp": "2025-12-12T11:38:30.170033+00:00", "meta": {"OBJECT_NAME": "STARLINK-36058", "OBJECT_ID": "2025-270D", "EPOCH": "2025-12-12T04:00:01.998720", "MEAN_MOTION": 15.50585827, "ECCENTRICITY": 0.0002337, "INCLINATION": 42.9996, "RA_OF_ASC_NODE": 196.0751, "ARG_OF_PERICENTER": 271.2604, "MEAN_ANOMALY": 159.0642, "EPHEMERIS_TYPE": 0, "CLASSIFICATION_TYPE": "U", "NORAD_CAT_ID": 66591, "ELEMENT_SET_NO": 999, "REV_AT_EPOCH": 430, "BSTAR": 0.0016498, "MEAN_MOTION_DOT": 0.00097687, "MEAN_MOTION_DDOT": 0}, "tle": {"line1": "1 66591U 25270D   25346.16668980  .00097687  00000+0  16498-2 0  9993", "line2": "2 66591  42.9996 196.0751 0002337 271.2604 159.0642 15.50585827  4304"}}, "geometry": {"type": "Point", "coordinates": [-125.00730300836655, 31.326345337370338]}}, {"type": "Feature", "properties": {"norad_id": 66592, "name": "STARLINK-36066", "group": "last-30-days", "lat": 32.25666246595544, "lon": -123.16092213662603, "alt_km": 412.08348342039517, "timestamp": "2025-12-12T11:38:30.170043+00:00", "meta": {"OBJECT_NAME": "STARLINK-36066", "OBJECT_ID": "2025-270E", "EPOCH": "2025-12-12T04:00:01.998720", "MEAN_MOTION": 15.50915682, "ECCENTRICITY": 0.0001763, "INCLINATION": 42.9997, "RA_OF_ASC_NODE": 196.0703, "ARG_OF_PERICENTER": 264.2995, "MEAN_ANOMALY": 167.9245, "EPHEMERIS_TYPE": 0, "CLASSIFICATION_TYPE": "U", "NORAD_CAT_ID": 66592, "ELEMENT_SET_NO": 999, "REV_AT_EPOCH": 420, "BSTAR": -0.019104, "MEAN_MOTION_DOT": -0.01032511, "MEAN_MOTION_DDOT": 0}, "tle": {"line1": "1 66592U 25270E   25346.16668980 -.01032511  00000+0 -19104-1 0  9998", "line2": "2 66592  42.9997 196.0703 0001763 264.2995 167.9245 15.50915682  4202"}}, "geometry": {"type": "Point", "coordinates": [-123.16092213662603, 32.25666246595544]}}, {"type": "Feature", "properties": {"norad_id": 66593, "name": "STARLINK-36031", "group": "last-30-days", "lat": 33.31741504173191, "lon": -120.93602006808965, "alt_km": 410.6546204219421, "timestamp": "2025-12-12T11:38:30.170053+00:00", "meta": {"OBJECT_NAME": "STARLINK-36031", "OBJECT_ID": "2025-270F", "EPOCH": "2025-12-12T04:00:01.998720", "MEAN_MOTION": 15.50792214, "ECCENTRICITY": 0.0001797, "INCLINATION": 42.9997, "RA_OF_ASC_NODE": 196.0657, "ARG_OF_PERICENTER": 274.9536, "MEAN_ANOMALY": 159.2758, "EPHEMERIS_TYPE": 0, "CLASSIFICATION_TYPE": "U", "NORAD_CAT_ID": 66593, "ELEMENT_SET_NO": 999, "REV_AT_EPOCH": 430, "BSTAR": -0.0058276, "MEAN_MOTION_DOT": -0.00330707, "MEAN_MOTION_DDOT": 0}, "tle": {"line1": "1 66593U 25270F   25346.16668980 -.00330707  00000+0 -58276-2 0  9990", "line2": "2 66593  42.9997 196.0657 0001797 274.9536 159.2758 15.50792214  4305"}}, "geometry": {"type": "Point", "coordinates": [-120.93602006808965, 33.31741504173191]}}, {"type": "Feature", "properties": {"norad_id": 66594, "name": "STARLINK-36032", "group": "last-30-days", "lat": 34.15602618094084, "lon": -119.07438015819292, "alt_km": 410.6066573030339, "timestamp": "2025-12-12T11:38:30.170064+00:00", "meta": {"OBJECT_NAME": "STARLINK-36032", "OBJECT_ID": "2025-270G", "EPOCH": "2025-12-12T04:00:01.998720", "MEAN_MOTION": 15.50543396, "ECCENTRICITY": 0.000197, "INCLINATION": 42.9999, "RA_OF_ASC_NODE": 196.0608, "ARG_OF_PERICENTER": 275.6463, "MEAN_ANOMALY": 160.4902, "EPHEMERIS_TYPE": 0, "CLASSIFICATION_TYPE": "U", "NORAD_CAT_ID": 66594, "ELEMENT_SET_NO": 999, "REV_AT_EPOCH": 404, "BSTAR": 0.0006725, "MEAN_MOTION_DOT": 0.00039259, "MEAN_MOTION_DDOT": 0}, "tle": {"line1": "1 66594U 25270G   25346.16668980  .00039259  00000+0  67250-3 0  9990", "line2": "2 66594  42.9999 196.0608 0001970 275.6463 160.4902 15.50543396  4045"}}, "geometry": {"type": "Point", "coordinates": [-119.07438015819292, 34.15602618094084]}}, {"type": "Feature", "properties": {"norad_id": 66595, "name": "STARLINK-35711", "group": "last-30-days", "lat": 34.972346562416064, "lon": -117.1600885298719, "alt_km": 410.1460310196171, "timestamp": "2025-12-12T11:38:30.170077+00:00", "meta": {"OBJECT_NAME": "STARLINK-35711", "OBJECT_ID": "2025-270H", "EPOCH": "2025-12-12T04:00:01.998720", "MEAN_MOTION": 15.50525101, "ECCENTRICITY": 0.0001173, "INCLINATION": 42.9997, "RA_OF_ASC_NODE": 196.0555, "ARG_OF_PERICENTER": 261.7315, "MEAN_ANOMALY": 176.1924, "EPHEMERIS_TYPE": 0, "CLASSIFICATION_TYPE": "U", "NORAD_CAT_ID": 66595, "ELEMENT_SET_NO": 999, "REV_AT_EPOCH": 441, "BSTAR": 0.0015916, "MEAN_MOTION_DOT": 0.00093975, "MEAN_MOTION_DDOT": 0}, "tle": {"line1": "1 66595U 25270H   25346.16668980  .00093975  00000+0  15916-2 0  9997", "line2": "2 66595  42.9997 196.0555 0001173 261.7315 176.1924 15.50525101  4415"}}, "geometry": {"type": "Point", "coordinates": [-117.1600885298719, 34.972346562416064]}}, {"type": "Feature", "properties": {"norad_id": 66596, "name": "STARLINK-35811", "group": "last-30-days", "lat": 32.13029313044499, "lon": -123.41684719542454, "alt_km": 424.16766387060034, "timestamp": "2025-12-12T11:38:30.170087+00:00", "meta": {"OBJECT_NAME": "STARLINK-35811", "OBJECT_ID": "2025-270J", "EPOCH": "2025-12-12T04:00:01.998720", "MEAN_MOTION": 15.47529413, "ECCENTRICITY": 0.0001728, "INCLINATION": 42.9995, "RA_OF_ASC_NODE": 196.0605, "ARG_OF_PERICENTER": 264.3988, "MEAN_ANOMALY": 171.874, "EPHEMERIS_TYPE": 0, "CLASSIFICATION_TYPE": "U", "NORAD_CAT_ID": 66596, "ELEMENT_SET_NO": 999, "REV_AT_EPOCH": 441, "BSTAR": -0.043243, "MEAN_MOTION_DOT": -0.02030037, "MEAN_MOTION_DDOT": 0}, "tle": {"line1": "1 66596U 25270J   25346.16668980 -.02030037  00000+0 -43243-1 0  9995", "line2": "2 66596  42.9995 196.0605 0001728 264.3988 171.8740 15.47529413  4415"}}, "geometry": {"type": "Point", "coordinates": [-123.41684719542454, 32.13029313044499]}}, {"type": "Feature", "properties": {"norad_id": 66597, "name": "STARLINK-35820", "group": "last-30-days", "lat": 36.685885724022306, "lon": -112.73519071522557, "alt_km": 410.19037401536207, "timestamp": "2025-12-12T11:38:30.170099+00:00", "meta": {"OBJECT_NAME": "STARLINK-35820", "OBJECT_ID": "2025-270K", "EPOCH": "2025-12-12T04:00:01.998720", "MEAN_MOTION": 15.50551687, "ECCENTRICITY": 0.0001927, "INCLINATION": 42.9996, "RA_OF_ASC_NODE": 196.046, "ARG_OF_PERICENTER": 276.5208, "MEAN_ANOMALY": 165.355, "EPHEMERIS_TYPE": 0, "CLASSIFICATION_TYPE": "U", "NORAD_CAT_ID": 66597, "ELEMENT_SET_NO": 999, "REV_AT_EPOCH": 441, "BSTAR": 0.0010025, "MEAN_MOTION_DOT": 0.00058855, "MEAN_MOTION_DDOT": 0}, "tle": {"line1": "1 66597U 25270K   25346.16668980  .00058855  00000+0  10025-2 0  9993", "line2": "2 66597  42.9996 196.0460 0001927 276.5208 165.3550 15.50551687  4416"}}, "geometry": {"type": "Point", "coordinates": [-112.73519071522557, 36.685885724022306]}}]}